#dP2020  1 23  0  0  0.00000000      96 __u+U ITR00 FIT  IAC
## 2089 345600.00000000   900.00000000 58871 0.0000000000000
+  106   C06C07C08C09C10C11C12C13C14C16C19C20C21C22C23C24C25
+        C26C27C28C29C30C32C33C34C35C36C37E01E02E03E04E05E07
+        E08E09E11E12E13E14E15E18E19E21E24E25E26E27E30E31E33
+        E36G01G02G03G04G05G06G07G08G09G10G11G12G13G14G15G16
+        G17G18G19G20G21G22G23G24G25G26G27G28G29G30G31G32R01
+        R02R03R04R05R07R08R09R11R12R13R14R15R16R17R18R19R20
+        R21R22R23R26  0  0  0  0  0  0  0  0  0  0  0  0  0
++         8  8  9  8  8  8  8  8  8  8  8  8  8  8  8  8  8
++         8  8  8  8  8  8  8  8  8  8  8  4  4  4  4  4  4
++         4  4  4  4  4  4  4  4  4  4  4  4  4  4  4  4  4
++         4  3  4  3  4  3  3  3  3  3  3  3  4  3  3  4  3
++         3  4  3  4  4  3  3  3  4  3  3  3  4  3  3  4  6
++         5  5  5  6  5  5  5  6  5  6  5  5  6  5  5  6  6
++         6  6  5  8  0  0  0  0  0  0  0  0  0  0  0  0  0
%c M  cc GPS ccc cccc cccc cccc cccc ccccc ccccc ccccc ccccc
%c cc cc ccc ccc cccc cccc cccc cccc ccccc ccccc ccccc ccccc
%f  0.0000000  0.000000000  0.00000000000  0.000000000000000
%f  0.0000000  0.000000000  0.00000000000  0.000000000000000
%i    0    0    0    0      0      0      0      0         0
%i    0    0    0    0      0      0      0      0         0
/* INFORMATION & ANALYSIS CENTER (IAC)      ULTRA-RAPID DATA
/* S/V CLOCKS ARE ALIGNED TO GNSS TIME                      
/* G:C1WC2W R:C1PC2P E:C1XC5X C:C2IC6I J:C1CC2S             
/* PCV:IGS14_2086 OL/AL:FES2004  NONE     YN ORB:CoN CLK:CoN
*  2020 01 23 16  0  0.00000000
PC06 -18339.098492  21751.337812 -30907.352006    256.184586
PC07 -18741.667128  37483.313043   1032.196390     71.695271
PC08  -3927.903341  29678.533032  29925.941895    -92.890315
PC09  -3345.583905  24246.491056 -34105.176727    282.160165
PC10  -8553.750386  39001.657499  13056.237949   -588.922064
PC11 -24153.779321 -12733.278879  -5561.750452   -138.491052
PC12  -8643.662789 -17167.392763 -20179.369205    311.685224
PC13   5914.835216  36603.001507  20414.845353    223.209233
PC14 -15421.977677  -7102.572418  22163.098985   -806.001604
PC16 -16087.614825  22145.418975 -32095.409569   -827.554048
PC19  21066.693808  -1650.095902 -18211.162733    305.882213
PC20   7969.883695  14045.120238 -22743.877221   -600.420854
PC21  10364.915878 -21894.266519  13882.937054     -6.495169
PC22  22216.934960 -16640.897666  -2999.757887   -726.668959
PC23 -12792.852111  13144.301558 -21032.682509   -876.509269
PC24 -10480.164886 -24439.788283  -8418.147045   -906.921238
PC25 -16759.403776  -7210.512544 -21114.284614   -491.295327
PC26    531.103413 -26601.624184   8349.931841    544.666169
PC27  -2081.573543  16012.732492  22747.984465    265.699156
PC28 -20351.682372   5914.995639  18158.201104    256.648079
PC29  26952.016635   6589.190451  -2975.000246    177.738259
PC30  17745.874708  16155.298597  14228.782963    260.704985
PC32 -10203.575753  21960.607419 -13856.117020   -859.175891
PC33 -21034.006184   1634.913629  18262.312810   -818.170326
PC34 -18054.391195 -16136.575513 -13891.045536   -413.524162
PC35  20232.748224  -6559.155291 -18041.882070   -798.030674
PC36  16580.704268   7848.299084  21051.086719   -841.556410
PC37  -1528.708180  26419.065581  -8872.601060   -906.209566
PE01  -3655.359847 -25594.086569 -14404.478359   -779.676100
PE02   3698.088525  25572.423046  14458.571275    107.750148
PE03   7731.966454  15492.564420 -24014.216457   -258.275942
PE04 -24970.039619  -3993.874119  15385.697479   -451.295266
PE05 -14246.596640  18037.472599 -18654.725604   -411.596020
PE07  27751.221878 -10021.484714   2426.551505   -330.919032
PE08  25082.841826   3596.042148 -15312.863041   6230.655968
PE09 -27650.257460  10243.221849  -2509.496397   6179.497464
PE11 -19204.542688   2382.094206  22406.198118    926.477016
PE12 -24134.753357 -15123.292281   8102.622988   5987.143752
PE13  19275.394261  -2194.695407 -22341.827082    397.667818
PE14  12516.742588  13573.167763  15477.417493   -878.591034
PE15  24195.678428  14889.492059  -8292.353405    879.820734
PE18  -8240.556628 -20186.570889 -23625.844468   -975.447215
PE19  -5332.763229 -16143.355472  24228.560643     -1.847579
PE21   9284.219898 -27834.391100   3871.260103   -578.639478
PE24 -17070.532123  13616.690349 -20007.934609   5647.983449
PE25  -9343.676118  27809.477522  -3967.391285   -501.950967
PE26   3001.725583 -18264.436163 -23085.099041   3613.152983
PE27  16944.710037 -13723.261826  20015.746978    297.607111
PE30  14564.564378   8631.681732  24274.636875   4201.382943
PE31 -14622.100691  -8367.036406 -24331.238665   -471.424664
PE33 -14941.414054 -23243.855600 -10606.032270   -470.806037
PE36  -3049.424201  18008.835263  23304.938130    607.607278
PG01 -18099.980331  -7846.792927  17734.686497   -271.741536
PG02  13664.795993  22807.364848   1742.981440   -391.360068
PG03 -18006.171145   5062.998119  18763.002186    -78.448629
PG04 -26561.263298   -628.817042   -470.191848    -38.522744
PG05   7712.507343  15704.902672 -20061.878708     -6.520638
PG06   4278.747414  23424.290637  11785.796062   -189.905717
PG07 -11650.153252  10135.681910 -21282.576337   -198.481881
PG08 -23907.205097  -6503.319253  -9860.370735    -21.237878
PG09 -23506.546706   7376.490854 -10005.950309   -139.139156
PG10  10825.030388 -23834.358021   3751.242352   -219.788893
PG11 -23553.918459  -9022.409740   7296.301263   -381.866253
PG12  16770.619144   -432.316098  20323.908525    159.188535
PG13  17530.938159  12960.721684 -15349.167727    -17.973182
PG14  -3745.081541 -15489.093058  21600.622737    -37.005758
PG15  24741.881732   4631.556634  -9358.175479   -256.607407
PG16  -5402.299407 -16115.768182 -20484.621703   -116.669415
PG17  -8110.283562  13874.011391  21562.985910    203.645567
PG18 -18827.380683 -14786.283868  11093.173324    115.238121
PG19    411.461091  14699.353784  21825.062578   -208.554677
PG20  14876.851583 -20486.539028  -7758.251752    527.818381
PG21   8625.983263 -13431.891953 -20473.762791    -51.523474
PG22 -15833.642025  -3594.612976  21227.981275   -782.850066
PG23 -26712.542962   1173.946623   -944.408656   -141.212444
PG24  19531.696164   8844.828162  15712.496969     -7.982176
PG25  18378.689005 -13658.018598  12995.909474    -15.362872
PG26    825.594519 -22495.976711 -13949.977384    133.367995
PG27 -15268.273554 -12288.429871 -18195.379376   -189.787131
PG28 -11632.871845  23320.001322   6081.366058    743.614989
PG29  24199.839498  -4823.894070  -9881.124072    -14.832622
PG30  -3479.206558  20065.521232 -16917.910779   -136.045219
PG31  -5473.145201 -24020.352053   9259.482783    -18.460841
PG32   6812.644647 -14828.843781  20993.509461    192.931976
PR01  22108.381124  -7717.827247 -10133.944038     56.020507
PR02  16983.381897 -15693.560728  10737.627166    408.496819
PR03   1393.408352 -12934.683024  21967.083422      8.739654
PR04 -14706.817062  -2647.259056  20694.778102     36.326265
PR05 -22612.657987   9024.105593   7653.789523     43.658811
PR07   -959.408969  12722.639335 -22064.901342    -32.351922
PR08  14721.953508   2767.065199 -20594.265532     12.906883
PR09  -4446.989825  23226.891510  -9467.652394    112.964234
PR11   9619.526664  13059.304002  19685.223098    -11.010663
PR12  10655.501230  -5175.289189  22611.569387     99.405330
PR13   5528.842015 -21570.014259  12420.547420    -33.912623
PR14  -2472.822197 -24909.970133  -4912.669753     47.372930
PR15  -9179.072514 -13961.749444 -19252.412066    105.739899
PR16 -10674.640455   5981.276865 -22423.482648     -1.122455
PR17  -9968.485041 -15177.536300 -17880.765502    294.843638
PR18 -21234.323586 -13868.254053  -2971.582195     22.557827
PR19 -20987.539681  -5857.666840  13267.757420    -75.490372
PR20  -7650.017029   7459.984323  23179.352680   -402.248501
PR21  10763.806720  15307.024869  17356.083349   -100.172148
PR22  21924.409109  12910.373058    110.738403    -11.017408
PR23  18051.779598   1191.989855 -17981.826754    281.689390
PR26 -11139.456773   5145.967902  22374.768832   -410.116111
EOF
